STARLINK-30312          
1 57641U 23122K   26031.14596795 -.00000199  00000+0  36857-6 0  9995
2 57641  43.0046 298.6941 0001122 260.6744  99.3971 15.02534068136536
STARLINK-30263          
1 57642U 23122L   26031.73759937  .00002313  00000+0  18617-3 0  9990
2 57642  42.9983 295.3932 0000516  45.5194 314.5690 15.02543194136624
STARLINK-30280          
1 57643U 23122M   26031.72761273 -.00000047  00000+0  11566-4 0  9996
2 57643  43.0028 295.3135 0001457 265.3257  94.7419 15.02542503136628
STARLINK-30247          
1 57644U 23122N   26031.13265152 -.00000665  00000+0 -34147-4 0  9994
2 57644  43.0063 298.5938 0001264 276.7464  83.3234 15.02532983136536
STARLINK-30277          
1 57645U 23122P   26031.39669076  .00002298  00000+0  93030-4 0  9994
2 57645  43.0007 161.0095 0001628 265.7637  94.3028 15.27571844138178
STARLINK-30265          
1 57646U 23122Q   26031.74093395 -.00000124  00000+0  58911-5 0  9996
2 57646  43.0026 295.4170 0001101 266.1025  93.9691 15.02534228136625
STARLINK-30286          
1 57647U 23122R   26031.72428609 -.00000215  00000+0 -84967-6 0  9998
2 57647  43.0012 295.2928 0000857 270.7208  89.3537 15.02532818136622
STARLINK-30243          
1 57648U 23122S   26031.71096785  .00000302  00000+0  37406-4 0  9993
2 57648  43.0047 295.1906 0001357 264.3492  95.7196 15.02533462136624
STARLINK-30299          
1 57650U 23122U   26031.78743367 -.00000140  00000+0  47353-5 0  9992
2 57650  43.0019 294.9050 0000861 268.3971  91.6773 15.02532850136635
STARLINK-30294          
1 57651U 23122V   26031.71459353  .00000526  00000+0  53980-4 0  9994
2 57651  43.0038 282.5015 0001160 258.9646 101.1066 15.02531638136778
STARLINK-30276          
1 57652U 23122W   26031.78077438  .00001792  00000+0  14775-3 0  9996
2 57652  43.0055 294.8522 0001484 272.1241  87.9431 15.02532744136636
STARLINK-30289          
1 57653U 23122X   26031.71791684  .00000857  00000+0  78493-4 0  9995
2 57653  43.0037 282.4753 0001334 265.7784  94.2906 15.02533007136776
GAOFEN-12 04            
1 57654U 23123A   26031.84520704  .00001614  00000+0  22084-3 0  9990
2 57654  97.9135 311.8523 0001579  91.7641 268.3752 14.79885007132464
STARLINK-30267          
1 57663U 23124A   26031.38856998  .00000499  00000+0  28968-4 0  9995
2 57663  53.1626  20.2871 0001302  94.9714 265.1435 15.30192496137852
STARLINK-30298          
1 57665U 23124C   26031.65194057  .00002144  00000+0  84497-4 0  9996
2 57665  53.1613  19.1026 0001233  85.1188 274.9954 15.30194793137899
STARLINK-30301          
1 57666U 23124D   26031.60888184  .00120079  00000+0  40217-2 0  9991
2 57666  53.1596  80.9767 0000998  91.2377 268.8738 15.30035247136993
STARLINK-30275          
1 57667U 23124E   26031.34433632 -.00000771  00000+0 -13895-4 0  9999
2 57667  53.1617  20.5351 0001526  98.2128 261.9046 15.30187001137843
STARLINK-30278          
1 57668U 23124F   26031.33906322 -.00000784  00000+0 -14343-4 0  9993
2 57668  53.1621  20.5282 0001356  97.3979 262.7175 15.30188586137848
STARLINK-30271          
1 57669U 23124G   26031.28744546 -.00002024  00000+0 -56223-4 0  9998
2 57669  53.1619  20.7772 0001406  99.5461 260.5698 15.30190988137832
STARLINK-30322          
1 57670U 23124H   26031.34328689 -.00002287  00000+0 -65140-4 0  9992
2 57670  53.1620  20.5331 0001192 106.0570 254.0562 15.30192468137846
STARLINK-30296          
1 57671U 23124J   26031.39173027 -.00000481  00000+0 -41183-5 0  9998
2 57671  53.1616  20.2601 0001430  84.7349 275.3814 15.30191514137858
STARLINK-30274          
1 57672U 23124K   26031.37591707  .00000169  00000+0  17835-4 0  9993
2 57672  53.1630  20.2711 0001456  86.9009 273.2158 15.30189738137855
STARLINK-30316          
1 57673U 23124L   26031.33169329 -.00000199  00000+0  54212-5 0  9996
2 57673  53.1617  20.6013 0001119  96.5699 263.5429 15.30188095137845
STARLINK-30313          
1 57676U 23124P   26031.37908312 -.00001526  00000+0 -39424-4 0  9999
2 57676  53.1631  20.2889 0001414 110.3068 249.8085 15.30195912137856
STARLINK-30303          
1 57677U 23124Q   26031.13986405 -.00000391  00000+0 -10791-5 0  9999
2 57677  53.1618  20.8919 0001511  88.7631 271.3543 15.30191875137824
STARLINK-30320          
1 57678U 23124R   26031.62607188  .00000389  00000+0  25256-4 0  9998
2 57678  53.1639   6.2074 0001325  95.7433 264.3719 15.30189407138072
STARLINK-30321          
1 57679U 23124S   26031.34636420 -.00000738  00000+0 -12800-4 0  9990
2 57679  53.1610  20.0511 0001345  90.6830 269.4325 15.30186633137851
STARLINK-30283          
1 57680U 23124T   26031.38540104 -.00002159  00000+0 -60788-4 0  9996
2 57680  53.1621  20.2632 0001390  98.3721 261.7438 15.30201207137850
STARLINK-30273          
1 57681U 23124U   26031.28428252 -.00001401  00000+0 -35209-4 0  9994
2 57681  53.1618  20.7728 0001513 108.4927 251.6238 15.30186945137831
STARLINK-30297          
1 57682U 23124V   26031.38224424 -.00002167  00000+0 -61040-4 0  9993
2 57682  53.1622  20.3101 0001265 104.7913 255.3228 15.30204473137855
STARLINK-30295          
1 57683U 23124W   26031.26426963 -.00000123  00000+0  79817-5 0  9994
2 57683  53.1624  20.9064 0001184  86.3428 273.7708 15.30190789137837
CAPELLA-11 (ACADIA-1)   
1 57693U 23126A   26031.33565787  .00004904  00000+0  68266-3 0  9997
2 57693  53.0078  56.2023 0002376  58.2422 301.8785 14.79268744131845
JILIN-1 KUANFU 02A      
1 57696U 23127A   26031.78739345  .00005500  00000+0  33640-3 0  9994
2 57696  97.5582 127.4370 0007101  76.6332 283.5689 15.10626198135044
STARLINK-30288          
1 57698U 23129A   26031.83673414  .00001238  00000+0  10671-3 0  9991
2 57698  43.0053 320.2981 0001319 272.7542  87.3150 15.02531822135114
STARLINK-30347          
1 57699U 23129B   26031.75398661 -.00012580  00000+0 -91670-3 0  9993
2 57699  43.0042 308.6074 0001345 290.3263  69.7435 15.02584004135245
STARLINK-30332          
1 57700U 23129C   26031.83338548  .00002335  00000+0  18780-3 0  9999
2 57700  43.0033 320.2733 0001079 274.3778  85.6941 15.02544302134972
STARLINK-30345          
1 57701U 23129D   26031.22188118 -.00000424  00000+0 -16291-4 0  9994
2 57701  43.0097 324.2828 0002616 229.5178 130.5437 15.02535751134873
STARLINK-30333          
1 57702U 23129E   26031.21523134  .00001897  00000+0  15550-3 0  9994
2 57702  43.0061 324.2353 0001273 267.5531  92.5165 15.02528694135011
STARLINK-30336          
1 57703U 23129F   26031.15211216 -.00002215  00000+0 -14894-3 0  9990
2 57703  43.0041 324.6245 0002699 296.7129  63.3437 15.02519951134860
STARLINK-30346          
1 57704U 23129G   26031.20858522 -.00000463  00000+0 -19193-4 0  9995
2 57704  43.0055 324.1871 0001223 271.6059  88.4644 15.02533393134877
STARLINK-30327          
1 57707U 23129K   26031.42967969  .00059018  00000+0  24894-2 0  9998
2 57707  42.9961 294.4187 0021118 193.7090 166.3188 15.22293014135243
STARLINK-30315          
1 57708U 23129L   26031.86336995 -.00006555  00000+0 -47043-3 0  9998
2 57708  43.0047 320.4984 0001005 276.8298  83.2430 15.02554496135117
STARLINK-30287          
1 57709U 23129M   26031.20525129  .00000043  00000+0  18294-4 0  9997
2 57709  43.0058 324.1595 0001313 270.2841  89.7851 15.02537949135014
STARLINK-30335          
1 57710U 23129N   26031.86670111 -.00001845  00000+0 -12157-3 0  9997
2 57710  43.0045 320.5217 0001133 272.4859  87.5854 15.02529611135113
STARLINK-30318          
1 57711U 23129P   26031.21190968  .00002629  00000+0  20973-3 0  9998
2 57711  43.0058 324.1965 0001152 283.1732  76.8982 15.02520730134876
STARLINK-30348          
1 57712U 23129Q   26031.85671182 -.00000579  00000+0 -27783-4 0  9992
2 57712  43.0028 320.4471 0000736 271.4089  88.6669 15.02537943135112
STARLINK-30349          
1 57713U 23129R   26031.85004816  .00000292  00000+0  36647-4 0  9996
2 57713  43.0029 320.3945 0000903 255.6142 104.4600 15.02534276134970
STARLINK-30341          
1 57714U 23129S   26031.82674387  .00001211  00000+0  10474-3 0  9991
2 57714  43.0052 320.2222 0001157 270.0000  90.0709 15.02529951135111
STARLINK-30300          
1 57715U 23129T   26031.86004020  .00000242  00000+0  32972-4 0  9998
2 57715  43.0032 320.4727 0001009 268.8804  91.1923 15.02530332135110
STARLINK-30281          
1 57716U 23129U   26031.84006036  .00000249  00000+0  33540-4 0  9995
2 57716  43.0037 320.3233 0001070 272.3594  87.7126 15.02532344134975
STARLINK-30325          
1 57717U 23129V   26031.78690833  .00000710  00000+0  67679-4 0  9996
2 57717  43.0058 320.7846 0001162 270.1352  89.9357 15.02524147135101
STARLINK-30338          
1 57718U 23129W   26031.84339578  .00002737  00000+0  21773-3 0  9995
2 57718  43.0059 320.3482 0001163 277.1680  82.9030 15.02508535135112
STARLINK-30334          
1 57719U 23129X   26031.84672153  .00000399  00000+0  44624-4 0  9998
2 57719  43.0030 320.3732 0001028 277.9176  82.1550 15.02531021134976
YAOGAN-39 01A           
1 57727U 23130A   26031.06977878  .00012820  00000+0  53413-3 0  9992
2 57727  35.0120 270.9975 0003971 310.3099  49.7269 15.22910527134790
YAOGAN-39 01B           
1 57728U 23130B   26020.18613447  .00013171  00000+0  62889-3 0  9990
2 57728  34.9970 354.4815 0008271 203.8171 156.2160 15.18225256132995
YAOGAN-39 01C           
1 57731U 23130E   26023.86600395  .00011380  00000+0  54269-3 0  9993
2 57731  34.9941 331.4567 0007210 298.9162  61.0827 15.18297801133532
STARLINK-30375          
1 57732U 23131A   26031.61329819 -.00001699  00000+0 -11077-3 0  9990
2 57732  43.0074   0.7626 0001901 262.4785  97.5841 15.02520157134505
STARLINK-30310          
1 57733U 23131B   26031.82676552  .00008569  00000+0  64851-3 0  9992
2 57733  43.0038  11.6954 0000895 294.1748  65.9000 15.02544564134394
STARLINK-30365          
1 57734U 23131C   26031.79689382  .00000868  00000+0  79352-4 0  9991
2 57734  43.0050  12.3010 0000687 275.8980  84.1784 15.02531041134379
